CIC_OEM_VERS = 2.0
ORIGINATOR = 'ESEP'

META_STAR

OBJECT_NAME = 'BIRDY'
OBJECT_ID = 'CORPS'

CENTER_NAME = 'SUN'
REF_FRAME = 'ECLIPTICJ2000'
TIME_SYSTEM = 'UTC'

META_STOP

58124.3749058	2018-Jan-06 08:59:51.861118	-1.04438985083	47.5842139027	879844107.665	
58124.3749058	2018-Jan-06 08:59:51.861118	-1.04266830776	47.600925213	879193727.509	
58124.6249058	2018-Jan-06 14:59:51.861118	-1.04071040707	47.6349664074	878578069.547	
58124.8749058	2018-Jan-06 20:59:51.861118	-1.03875453956	47.6689010826	877961233.09	
58125.1249058	2018-Jan-07 02:59:51.861118	-1.03680011797	47.7027270644	877343201.06	
58125.3749058	2018-Jan-07 08:59:51.861118	-1.0348467344	47.7364425592	876723962.825	
